{
  "norad_id": 48386,
  "name": "STARLINK-2606",
  "history": [
    {
      "epoch": "2026-03-28T20:41:09.013632",
      "apogee_km": 475.9999890218123,
      "perigee_km": 474.47360560967445,
      "latitude_deg": -52.145828098368334,
      "longitude_deg": -178.65665151993744,
      "semi_major_axis_km": 6853.373797315743,
      "eccentricity": 0.00011136,
      "inclination_deg": 53.1605,
      "raan_deg": 256.5058,
      "arg_perigee_deg": 81.5871,
      "mean_anomaly_deg": 278.5256,
      "mean_motion_rev_day": 15.30192723
    },
    {
      "epoch": "2026-03-29T04:00:01.999584",
      "apogee_km": 476.043920055341,
      "perigee_km": 474.46626919515893,
      "latitude_deg": 1.6797668673523167,
      "longitude_deg": -149.3977782400325,
      "semi_major_axis_km": 6853.39209462525,
      "eccentricity": 0.0001151,
      "inclination_deg": 53.1599,
      "raan_deg": 255.0903,
      "arg_perigee_deg": 73.8045,
      "mean_anomaly_deg": 166.1738,
      "mean_motion_rev_day": 15.30186595
    }
  ]
}